GSAT0101 (PRN E11)      
1 37846U 11060A   23216.79436601 -.00000089  00000+0  00000+0 0  9992
2 37846  57.1053  10.1244 0002842  67.3316 292.6967  1.70475823 73395
GSAT0102 (PRN E12)      
1 37847U 11060B   23218.47063184 -.00000093  00000+0  00000+0 0  9997
2 37847  57.1066  10.0791 0001977  20.1887 334.9372  1.70475262 73414
GSAT0103 (PRN E19)      
1 38857U 12055A   23218.00659040 -.00000013  00000+0  00000+0 0  9997
2 38857  55.2723 130.3001 0003802 272.8477  87.1335  1.70473621 67310
GSAT0104 (PRN E20)      
1 38858U 12055B   23217.38950445 -.00000010  00000+0  00000+0 0  9998
2 38858  55.2724 130.3186 0001273 276.1236  83.8861  1.70473874 67278
GSAT0201 (PRN E18)      
1 40128U 14050A   23218.23725283 -.00000104  00000+0  00000+0 0  9997
2 40128  49.9615 315.7317 1610143 139.2673 233.9791  1.85518998 60852
GSAT0202 (PRN E14)      
1 40129U 14050B   23214.72379917 -.00000074  00000+0  00000+0 0  9993
2 40129  49.9843 314.9432 1608019 139.9466 233.1190  1.85519576 60983
GSAT0203 (PRN E26)      
1 40544U 15017A   23218.92022476 -.00000095  00000+0  00000+0 0  9992
2 40544  56.9011  10.0438 0002140 217.1042 142.8807  1.70476038 52048
GSAT0204 (PRN E22)      
1 40545U 15017B   23219.17377463 -.00000095  00000+0  00000+0 0  9990
2 40545  56.9071  10.0510 0002617 195.6388 164.3531  1.70475578 52050
GSAT0205 (PRN E24)      
1 40889U 15045A   23218.94172993  .00000036  00000+0  00000+0 0  9991
2 40889  55.3771 250.4815 0003121 359.1500   0.9058  1.70473605 49192
GSAT0206 (PRN E30)      
1 40890U 15045B   23216.22951824  .00000040  00000+0  00000+0 0  9995
2 40890  55.3774 250.5520 0001968 321.0700  38.9845  1.70473575 49177
GSAT0209 (PRN E09)      
1 41174U 15079A   23218.16089980 -.00000015  00000+0  00000+0 0  9991
2 41174  55.2901 130.0024 0003871 320.6237  39.3734  1.70473840 47524
GSAT0208 (PRN E08)      
1 41175U 15079B   23217.20733518 -.00000009  00000+0  00000+0 0  9992
2 41175  55.2879 130.0269 0003153 323.1389  36.8639  1.70473730 47501
GSAT0211 (PRN E02)      
1 41549U 16030A   23217.32835225  .00000036  00000+0  00000+0 0  9995
2 41549  55.5242 250.4987 0003425 305.9128  54.1171  1.70473751 44805
GSAT0210 (PRN E01)      
1 41550U 16030B   23217.61989755  .00000035  00000+0  00000+0 0  9996
2 41550  55.5231 250.4918 0004034 269.6724  90.3415  1.70473754 44800
GSAT0207 (PRN E07)      
1 41859U 16069A   23217.28159758 -.00000010  00000+0  00000+0 0  9999
2 41859  54.9525 130.1059 0004014 304.6598  55.3266  1.70473761 41774
GSAT0212 (PRN E03)      
1 41860U 16069B   23217.13629325 -.00000009  00000+0  00000+0 0  9995
2 41860  54.9500 130.1069 0002973 335.9560  24.0540  1.70473958 41808
GSAT0213 (PRN E04)      
1 41861U 16069C   23216.32894774 -.00000007  00000+0  00000+0 0  9996
2 41861  54.9521 130.1353 0003901 281.4512  78.5264  1.70472652 41786
GSAT0214 (PRN E05)      
1 41862U 16069D   23217.06274432 -.00000009  00000+0  00000+0 0  9994
2 41862  54.9505 130.1090 0003171 287.1339  72.8551  1.70472536 41794
GSAT0215 (PRN E21)      
1 43055U 17079A   23215.20554664  .00000048  00000+0  00000+0 0  9996
2 43055  55.5014 250.3838 0003415 260.5009  99.5373  1.70474347 35105
GSAT0216 (PRN E25)      
1 43056U 17079B   23213.73775815  .00000061  00000+0  00000+0 0  9991
2 43056  55.5022 250.4242 0005025 270.2614  89.7689  1.70474489 35067
GSAT0217 (PRN E27)      
1 43057U 17079C   23217.47755296  .00000036  00000+0  00000+0 0  9990
2 43057  55.4988 250.3201 0004818 281.1063  78.9001  1.70474327 35148
GSAT0218 (PRN E31)      
1 43058U 17079D   23218.87075988  .00000037  00000+0  00000+0 0  9990
2 43058  55.4964 250.2789 0005674 269.9267  90.0645  1.70474421 35160
GSAT0221 (PRN E15)      
1 43564U 18060A   23218.18379006 -.00000092  00000+0  00000+0 0  9997
2 43564  57.2819   9.9846 0001759 259.4969 100.4821  1.70475867 31340
GSAT0222 (PRN E33)      
1 43565U 18060B   23218.98842457 -.00000094  00000+0  00000+0 0  9993
2 43565  57.2852   9.9638 0002433 197.4150 162.5762  1.70475587 31397
GSAT0219 (PRN E36)      
1 43566U 18060C   23218.03762249 -.00000092  00000+0  00000+0 0  9998
2 43566  57.2847   9.9917 0000844 276.9871  83.0020  1.70475870 31354
GSAT0220 (PRN E13)      
1 43567U 18060D   23218.84461074 -.00000094  00000+0  00000+0 0  9992
2 43567  57.2844   9.9695 0001105 261.6274  98.3595  1.70475647 31341
GSAT0223 (PRN E34)      
1 49809U 21116A   23218.08660493 -.00000092  00000+0  00000+0 0  9993
2 49809  57.2757   9.8861 0002975 158.0225 187.0193  1.70475742 10347
GSAT0224 (PRN E10)      
1 49810U 21116B   23218.80895456 -.00000094  00000+0  00000+0 0  9996
2 49810  57.2771   9.8648 0002688 145.3713  35.4730  1.70475829 10372
